satname,norad_id,inclination_deg,eccentricity,mean_motion_rev_per_day,perigee_km,apogee_km,l1,l2
STARLINK-1283,45389,53.0519,0.0006995,15.36956519,450.33540154925504,459.89512146310244,1 45389U 20019AF  25348.26732294  .00411356  00000+0  10627-1 0  9994,2 45389  53.0519 158.2635 0006995 149.1444 210.9971 15.36956519317303
STARLINK-1284,45390,53.0547,0.0001369,15.06388341,546.2992062150615,548.195376434026,1 45390U 20019AG  25348.23171214  .00000645  00000+0  62216-4 0  9991,2 45390  53.0547 170.2583 0001369  89.1610 270.9536 15.06388341317122
STARLINK-1297,45395,53.0538,0.000144,15.06416076,546.1650446543772,548.1595308492497,1 45395U 20019AM  25347.93680167  .00002659  00000+0  19727-3 0  9999,2 45395  53.0538 171.5790 0001440  90.2949 269.8205 15.06416076316260
STARLINK-1307,45397,53.0528,0.0001514,15.06420278,546.1009211236096,548.197897848403,1 45397U 20019AP  25347.92946293  .00008445  00000+0  58484-3 0  9997,2 45397  53.0528 171.6111 0001514  72.4079 287.7076 15.06420278316902
STARLINK-1255,45399,53.0459,0.0004851,15.36509331,453.12558344619174,459.7564910579331,1 45399U 20019AR  25348.08103171  .00256702  00000+0  68725-2 0  9996,2 45399  53.0459 150.2105 0004851 152.2017 207.9245 15.36509331317206
STARLINK-1260,45404,53.0541,0.0001381,15.06384777,546.3018175545312,548.2146117128141,1 45404U 20019AW  25348.19577267  .00000854  00000+0  76264-4 0  9990,2 45404  53.0541 160.4113 0001381  83.4392 276.6754 15.06384777316976
STARLINK-1263,45405,53.0527,0.0001442,15.06401923,546.207029814329,548.2042986386923,1 45405U 20019AX  25347.91563155  .00004840  00000+0  34359-3 0  9998,2 45405  53.0527 161.6743 0001442  85.9589 274.1565 15.06401923316938
STARLINK-1265,45406,53.0552,0.0001457,15.06450515,546.0477403369941,548.0657417931407,1 45406U 20019AY  25347.72394544 -.00013661  00000+0 -89871-3 0  9994,2 45406  53.0552 162.5356 0001457  76.2709 283.8442 15.06450515316909
STARLINK-1278,45408,53.0523,0.0010225,15.39569339,440.4027884768693,454.36097458960467,1 45408U 20019BA  25347.94112835  .00070086  00000+0  17461-2 0  9998,2 45408  53.0523 180.2190 0010225 135.8219 224.3603 15.39569339316688
STARLINK-1296,45412,53.055,0.0001044,15.06489264,546.2150123145275,547.6609679724688,1 45412U 20019BE  25347.79398495 -.00025515  00000+0 -16960-2 0  9996,2 45412  53.0550 162.2165 0001044 118.7995 241.3099 15.06489264316911
STARLINK-1298,45413,53.0432,0.0005603,15.61447782,379.68571857362895,387.2627801396575,1 45413U 20019BF  25348.33336806  .00163603  00000+0  18471-2 0  9994,2 45413  53.0432 120.2759 0005603  93.9631  94.3514 15.61447782  5902
STARLINK-1309,45414,53.0533,0.0001606,15.06402534,546.0915818729964,548.316001335259,1 45414U 20019BG  25348.20683806  .00004753  00000+0  33775-3 0  9991,2 45414  53.0533 160.3675 0001606  80.8471 279.2699 15.06402534316967
STARLINK-1316,45415,53.0533,0.0001389,15.06396404,546.2606467367332,548.184511627831,1 45415U 20019BH  25347.90089109  .00000049  00000+0  22198-4 0  9996,2 45415  53.0533 161.7390 0001389  83.2627 276.8520 15.06396404316958
STARLINK-1318,45416,53.0451,9.07e-05,15.68494743,362.59515606784316,363.81803579614643,1 45416U 20019BJ  25348.33336806  .00061407  00000+0  53393-3 0  9999,2 45416  53.0451 109.5340 0000907 195.4813 116.8477 15.68494743  5920
STARLINK-1286,45417,53.0525,0.0005829,15.41405942,437.98358053709217,445.9344484708008,1 45417U 20019BK  25348.24811618  .00082622  00000+0  19347-2 0  9991,2 45417  53.0525 178.6847 0005829 138.4420 221.7028 15.41405942317008
STARLINK-1308,45419,53.0536,0.0001471,15.06397503,546.2004909955931,548.2379307928377,1 45419U 20019BM  25348.26672006  .00000048  00000+0  22110-4 0  9997,2 45419  53.0536 190.0937 0001471  91.6569 268.4589 15.06397503316590
STARLINK-1329,45531,53.0536,0.0001113,15.26121647,486.65527019823367,488.1835430543488,1 45531U 20025A   25348.33336806  .01769690  00000+0  61790-1 0  9992,2 45531  53.0536 129.0929 0001113 121.1225  54.9465 15.26121647  5760
STARLINK-1338,45532,53.0532,0.0002192,15.09274708,536.898871253903,539.9310876416939,1 45532U 20025B   25348.33336806  .01634976  00000+0  93038-1 0  9991,2 45532  53.0532 129.7791 0002192  81.6545  38.1102 15.09274708  5764
STARLINK-1350,45535,53.0743,0.0001619,15.33713079,463.63781346049745,465.85353887103975,1 45535U 20025E   25347.97022088  .00013217  00000+0  41035-3 0  9997,2 45535  53.0743  74.9685 0001619  90.0061 270.1126 15.33713079312990
STARLINK-1362,45538,53.0546,0.000109,15.0640541,546.4401159315767,547.9498383025884,1 45538U 20025H   25347.88056078  .00002276  00000+0  17158-3 0  9998,2 45538  53.0546 131.5485 0001090  89.7933 270.3181 15.06405410312167
STARLINK-1368,45540,53.0541,0.0001393,15.06397697,546.2539142732257,548.1833183479293,1 45540U 20025K   25347.81887441  .00000202  00000+0  32442-4 0  9991,2 45540  53.0541 132.1076 0001393  93.0061 267.1087 15.06397697312148
STARLINK-1371,45542,53.0556,0.0001331,15.06378343,546.356161591566,548.1997070470825,1 45542U 20025M   25348.12113003  .00001229  00000+0  10145-3 0  9999,2 45542  53.0556 130.7469 0001331 101.2238 258.8901 15.06378343312190
STARLINK-1372,45543,53.0524,0.0001841,15.06409633,545.9070831037916,548.4569855722348,1 45543U 20025N   25348.35703486  .00002152  00000+0  16330-3 0  9993,2 45543  53.0524 129.6912 0001841  87.9095 272.2105 15.06409633311320
STARLINK-1373,45544,53.0553,0.0001313,15.06387802,546.3396401293603,548.1582464780713,1 45544U 20025P   25348.11006654  .00001370  00000+0  11089-3 0  9998,2 45544  53.0553 130.7980 0001313  96.0691 264.0448 15.06387802312196
STARLINK-1294,45551,53.0449,0.0001125,15.68637397,362.0395233121235,363.5562336597832,1 45551U 20025W   25348.33336806 -.00030957  00000+0 -26306-3 0  9998,2 45551  53.0449  44.9313 0001125 126.8709 225.3292 15.68637397  5929
STARLINK-1325,45554,53.0515,0.00096,15.78826129,327.32205414447435,340.2089069070844,1 45554U 20025Z   25348.33336806  .00032837  00000+0  18522-3 0  9999,2 45554  53.0515  36.0076 0009600  22.7158 359.1242 15.78826129  5938
STARLINK-1327,45555,53.0562,0.0001576,15.06382548,546.1736029586255,548.3564896836269,1 45555U 20025AA  25348.34781737 -.00001963  00000+0 -11296-3 0  9997,2 45555  53.0562 109.7315 0001576  95.7978 264.3190 15.06382548312505
STARLINK-1356,45564,53.0555,0.0001354,15.06373139,546.3561809161747,548.2315875996319,1 45564U 20025AK  25348.35151595  .00000528  00000+0  54391-4 0  9999,2 45564  53.0555 109.7148 0001354  74.7213 285.3926 15.06373139312500
STARLINK-1357,45565,53.058,0.0003896,15.39613661,444.59171560219147,449.9100578435273,1 45565U 20025AL  25348.33336806  .00061855  00000+0  15438-2 0  9995,2 45565  53.0580  85.7736 0003896 162.0608 294.9897 15.39613661  5726
STARLINK-1361,45567,53.0559,0.000128,15.06393693,546.3444409626745,548.1173351420148,1 45567U 20025AN  25348.03819063  .00001254  00000+0  10306-3 0  9992,2 45567  53.0559 111.1196 0001280  81.1298 278.9836 15.06393693312460
STARLINK-1363,45568,53.0495,0.0005639,15.4982926,413.3932016985573,421.0570110821436,1 45568U 20025AP  25348.33336806  .00122416  00000+0  21342-2 0  9990,2 45568  53.0495  95.3634 0005639 252.8557 118.6193 15.49829260  5801
STARLINK-1366,45569,53.0496,0.0004975,15.46869372,422.5058210342595,429.2758287200122,1 45569U 20025AQ  25348.28935892  .00109341  00000+0  21183-2 0  9990,2 45569  53.0496  95.7037 0004975 269.3748  90.6688 15.46869372312692
STARLINK-1376,45570,53.0543,0.000114,15.06398295,546.4272931913201,548.0062738539618,1 45570U 20025AR  25347.70276265 -.00000237  00000+0  30073-5 0  9996,2 45570  53.0543 112.6302 0001140  90.0053 270.1067 15.06398295312402
STARLINK-1320,45572,53.0553,0.0004079,15.49441595,415.5862195538557,421.1308005909723,1 45572U 20025AT  25348.29835193  .00083029  00000+0  14778-2 0  9994,2 45572  53.0553  41.1368 0004079 119.4142 240.7273 15.49441595313482
STARLINK-1321,45573,53.0542,0.0001861,15.06386544,545.9639839056636,548.5416139888321,1 45573U 20025AU  25348.35244055  .00003580  00000+0  25923-3 0  9992,2 45573  53.0542  99.7112 0001861  82.6599 277.4601 15.06386544312341
STARLINK-1328,45576,53.0447,0.0001856,15.88120444,306.3118512425235,308.793579264825,1 45576U 20025AX  25348.33336806  .00218662  00000+0  76654-3 0  9995,2 45576  53.0447  53.8270 0001856 212.6172 303.7734 15.88120444  5894
STARLINK-1331,45578,53.0548,7.94e-05,15.06415671,546.6136601346825,547.7133978586862,1 45578U 20025AZ  25347.73316273  .00005333  00000+0  37649-3 0  9996,2 45578  53.0548 102.4904 0000794 108.8043 251.3032 15.06415671312569
STARLINK-1333,45580,53.0553,0.0001284,15.06393087,546.343527893343,548.121962843953,1 45580U 20025BB  25348.33675413  .00001605  00000+0  12661-3 0  9995,2 45580  53.0553 109.7802 0001284  82.2999 277.8136 15.06393087312503
STARLINK-1335,45581,53.0548,0.0001318,15.06390325,546.3284457303735,548.1539754266814,1 45581U 20025BC  25348.27501709  .00001508  00000+0  12014-3 0  9999,2 45581  53.0548 100.0619 0001318  95.6990 264.4149 15.06390325312637
STARLINK-1337,45582,53.0544,0.0001384,15.06390972,546.2807555262971,548.197699666096,1 45582U 20025BD  25347.83269902  .00001529  00000+0  12153-3 0  9994,2 45582  53.0544 102.0464 0001384 112.6800 247.4336 15.06390972312566
STARLINK-1347,45586,53.0508,0.0003512,15.38398598,448.4459756470078,453.2426521218813,1 45586U 20025BH  25348.27582379  .00079364  00000+0  20534-2 0  9996,2 45586  53.0508  76.7909 0003512 162.6264 197.4860 15.38398598312951
STARLINK-1360,45588,53.0394,0.0004683,15.90655743,297.31916431832997,303.57432585397873,1 45588U 20025BK  25348.33336806  .00246592  33482-4  78737-3 0  9990,2 45588  53.0394 340.1141 0004683  53.6311 135.7026 15.90655743  5981
STARLINK-1364,45589,53.0534,0.0001177,15.06403904,546.384480649429,548.0147048833669,1 45589U 20025BL  25348.03541553 -.00003990  00000+0 -24909-3 0  9997,2 45589  53.0534 101.1365 0001177  92.9655 267.1469 15.06403904312599
